GALAXY 25 (G-25)        
1 24812C 97026A   22185.00000000  .00000087  00000-0  00000-0 0  1851
2 24812   3.7284  83.5606 0005813   0.3431 264.2129  1.00270657    14
GALAXY 25 (G-25)        
1 24812C 97026A   22191.97408565  .00000087  00000-0  00000-0 0  1919
2 24812   3.7506  83.4379 0006031   6.7735 255.4298  1.00270085    11
GALAXY 25 (G-25)    [PM]
1 24812C 97026A   22195.00553241  .00000088  00000-0  00000-0 0  1954
2 24812   3.7559  70.3546 0006096   6.8634 282.7283  1.00270380    15
INTELSAT 5 (IS-5)   [PM]
1 24916C 97046A   22167.00000000  .00000034  00000-0  00000-0 0  1670
2 24916   7.2273  61.0915 0004858  55.7717 313.5008  1.00273613    18
INTELSAT 5 (IS-5)       
1 24916C 97046A   22185.00000000  .00000034  00000-0  00000-0 0  1850
2 24916   7.2585  60.9451 0004518  63.4534 323.7122  1.00275319    18
INTELSAT 5 (IS-5)       
1 24916C 97046A   22191.97408565  .00000034  00000-0  00000-0 0  1918
2 24916   7.2788  60.8904 0005291  68.0522 316.7150  1.00275518    16
GALAXY 11 (G-11)        
1 26038C 99071A   22188.00000000 -.00000072  00000-0  00000-0 0  1886
2 26038   3.0421  87.4785 0000254  18.0853  86.2786  1.00269872    19
GALAXY 11 (G-11)        
1 26038C 99071A   22191.89667824 -.00000072  00000-0  00000-0 0  1914
2 26038   3.0577  87.4152 0000448  53.2187  17.8458  1.00270382    19
INTELSAT 9 (IS-9)       
1 26451C 00043A   22185.00000000 -.00000191  00000-0  00000-0 0  1852
2 26451   7.2438  61.1240 0002362 333.0744 197.7672  1.00275317    11
INTELSAT 9 (IS-9)   [PM]
1 26451C 00043A   22187.72489583 -.00000191  00000-0  00000-0 0  1872
2 26451   7.2506  61.0858 0004858  21.5782  52.9807  1.00271899    17
INTELSAT 9 (IS-9)       
1 26451C 00043A   22191.97408565 -.00000191  00000-0  00000-0 0  1910
2 26451   7.2645  61.0714 0002152 352.6988 175.7511  1.00271588    14
INTELSAT 1R (IS-1R)     
1 26608C 00072A   22188.00000000 -.00000047  00000-0  00000-0 0  1884
2 26608   4.5217  80.3389 0000357  93.2854 268.4383  1.00271454    19
INTELSAT 1R (IS-1R)     
1 26608C 00072A   22191.89667824 -.00000047  00000-0  00000-0 0  1912
2 26608   4.5362  80.3339 0000144  81.5526 246.8145  1.00269442    15
INTELSAT 10 (IS-10)     
1 26766C 01019A   22185.00000000  .00000127  00000-0  00000-0 0  1853
2 26766   5.6131  73.2398 0004617  23.0923   3.4476  1.00275158    18
INTELSAT 10 (IS-10) [PM]
1 26766C 01019A   22185.55241898  .00000127  00000-0  00000-0 0  1855
2 26766   5.6144  73.2380 0002997 353.8425 232.1224  1.00271899    13
INTELSAT 10 (IS-10)     
1 26766C 01019A   22191.97408565  .00000127  00000-0  00000-0 0  1911
2 26766   5.6348  73.1601 0004882  29.5226 354.6187  1.00273397    18
INTELSAT 901            
1 26824C 01024A   22185.00000000 -.00003886  00000-0  00000-0 0  1850
2 26824   0.0035 329.4846 0001104 182.6387 102.3804  1.00269862    12
INTELSAT 901            
1 26824C 01024A   22191.97408565 -.00004144  00000-0  00000-0 0  1916
2 26824   0.0204 304.2238 0001361 186.5035 121.3097  1.00269509    17
INTELSAT 902            
1 26900C 01039A   22185.00000000 -.00000192  00000-0  00000-0 0  1858
2 26900   2.4432  88.9007 0002987   9.3612 133.6291  1.00275496    13
INTELSAT 902            
1 26900C 01039A   22191.97408565 -.00000192  00000-0  00000-0 0  1916
2 26900   2.4652  88.7229 0003379  19.5312 121.1959  1.00270333    15
INTELSAT 902        [PM]
1 26900C 01039A   22192.95738426 -.00000192  00000-0  00000-0 0  1928
2 26900   2.4686  88.7474 0003467  19.5040 116.1508  1.00270952    11
INTELSAT 904            
1 27380C 02007A   22185.00000000 -.00000123  00000-0  00000-0 0  1851
2 27380   3.2754  85.8272 0002736   9.4060 157.2551  1.00272558    19
INTELSAT 904            
1 27380C 02007A   22191.97408565 -.00000123  00000-0  00000-0 0  1919
2 27380   3.2975  85.6860 0003177  21.1262 143.2178  1.00271675    19
INTELSAT 904        [PM]
1 27380C 02007A   22197.83200232 -.00000123  00000-0  00000-0 0  1977
2 27380   3.3093  85.7013 0003423  33.1634  85.7736  1.00271251    12
INTELSAT 905        [PM]
1 27438C 02027A   22183.91770833 -.00000094  00000-0  00000-0 0  1838
2 27438   3.0922  71.8476 0002289 348.5479 166.3988  1.00273484    17
INTELSAT 905            
1 27438C 02027A   22185.00000000 -.00000094  00000-0  00000-0 0  1854
2 27438   3.0973  86.5760 0002518 346.5473 184.3671  1.00272832    14
INTELSAT 905            
1 27438C 02027A   22191.97408565 -.00000094  00000-0  00000-0 0  1912
2 27438   3.1195  86.4333 0002701   3.5091 165.0923  1.00271237    10
GALAXY 3C (G-3C)        
1 27445C 02030A   22188.00000000 -.00000061  00000-0  00000-0 0  1886
2 27445   0.0279  62.3279 0004945 347.0276 140.6127  1.00272768    17
GALAXY 3C (G-3C)        
1 27445C 02030A   22191.89667824 -.00000062  00000-0  00000-0 0  1915
2 27445   0.0433  58.5465 0004103 355.3220 102.7977  1.00273381    14
INTELSAT 906            
1 27513C 02041A   22185.00000000  .00000105  00000-0  00000-0 0  1856
2 27513   2.1122  90.4151 0002874  11.8975 243.8395  1.00272168    12
INTELSAT 906        [PM]
1 27513C 02041A   22187.08593750  .00000105  00000-0  00000-0 0  1877
2 27513   2.1159  90.3324 0003101  12.7452 276.0785  1.00269403    16
INTELSAT 906            
1 27513C 02041A   22191.97408565  .00000105  00000-0  00000-0 0  1914
2 27513   2.1337  90.2133 0003352  18.6096 234.8554  1.00271105    16
GALAXY 12 (G-12)        
1 27715C 03013B   22185.00000000  .00000149  00000-0  00000-0 0  1858
2 27715   3.3080  85.4457 0002138  11.5772  55.9644  1.00271655    19
GALAXY 12 (G-12)        
1 27715C 03013B   22191.97408565  .00000149  00000-0  00000-0 0  1916
2 27715   3.3302  85.3128 0002628  21.3212  43.8927  1.00271968    19
GALAXY 12 (G-12)    [PM]
1 27715C 03013B   22193.60980324  .00000149  00000-0  00000-0 0  1938
2 27715   3.3354  85.3466 0001926  31.7508 263.9070  1.00269251    10
GALAXY 23 (G-23)        
1 27854C 03034A   22185.00000000  .00000100  00000-0  00000-0 0  1852
2 27854   0.0352 244.5188 0002553 219.5704  56.8838  1.00271368    10
GALAXY 23 (G-23)        
1 27854C 03034A   22191.97408565  .00000103  00000-0  00000-0 0  1913
2 27854   0.0499 261.0368 0003194 211.6179  45.8741  1.00270382    13
GALAXY 23 (G-23)    [PM]
1 27854C 03034A   22199.62586806  .00000102  00000-0  00000-0 0  1995
2 27854   0.0275 283.4974 0002931 205.3696 271.8304  1.00269750    11
GALAXY 13               
1 27954C 03044A   22185.00000000  .00000141  00000-0  00000-0 0  1859
2 27954   0.0001  52.2981 0001251 304.2078 158.4568  1.00268893    15
GALAXY 13           [PM]
1 27954C 03044A   22187.12810185  .00000127  00000-0  00000-0 0  1873
2 27954   0.0333 203.2192 0001571 167.0045 192.9521  1.00271160    12
GALAXY 13               
1 27954C 03044A   22191.97408565  .00000138  00000-0  00000-0 0  1913
2 27954   0.0136  73.8575 0002467 104.0504 334.6118  1.00268421    18
INTELSAT 10-02          
1 28358C 04022A   22187.92001157  .00000077  00000-0  00000-0 0  1872
2 28358   0.0315 255.4932 0001211 239.2291 120.3761  1.00269937    18
INTELSAT 10-02          
1 28358C 04022A   22191.89667824 -.00003874  00000-0  00000-0 0  1916
2 28358   0.0157 310.1448 0001271 174.5235 125.9415  1.00270098    15
GALAXY 28 (G-28)        
1 28702C 05022A   22188.00000000 -.00000095  00000-0  00000-0 0  1884
2 28702   0.0112 354.5178 0002343 121.2858  80.1467  1.00270287    11
GALAXY 28 (G-28)        
1 28702C 05022A   22191.89667824 -.00000095  00000-0  00000-0 0  1912
2 28702   0.0146 350.6953 0002725 136.5191  35.3814  1.00269762    13
GALAXY 28 (G-28)    [PM]
1 28702C 05022A   22192.75895833 -.00000094  00000-0  00000-0 0  1921
2 28702   0.0109   1.1166 0002652 124.1915 348.5657  1.00269969    15
GALAXY 14 (G-14)        
1 28790C 05030A   22185.00000000  .00000246  00000-0  00000-0 0  1851
2 28790   1.3011  92.2015 0001725 359.5929 223.0810  1.00271887    11
GALAXY 14 (G-14)    [PM]
1 28790C 05030A   22190.84722222  .00000246  00000-0  00000-0 0  1902
2 28790   1.3179  91.9095 0002503   8.9393 164.7959  1.00269801    13
GALAXY 14 (G-14)        
1 28790C 05030A   22191.97408565  .00000246  00000-0  00000-0 0  1919
2 28790   1.3224  91.9333 0002484  10.8763 209.6079  1.00270358    11
GALAXY 15 (G-15)        
1 28884C 05041A   22185.00000000  .00000169  00000-0  00000-0 0  1851
2 28884   0.0098 345.8616 0001657 106.9505  56.1818  1.00270377    14
GALAXY 15 (G-15)        
1 28884C 05041A   22191.97408565  .00000169  00000-0  00000-0 0  1919
2 28884   0.0194 334.2720 0002116 136.2680  35.9839  1.00270425    12
GALAXY 15 (G-15)    [PM]
1 28884C 05041A   22194.83708333  .00000207  00000-0  00000-0 0  1949
2 28884   0.0432 289.7843 0002101 186.1397 344.0911  1.00271421    12
GALAXY 16 (G-16)        
1 29236C 06023A   22185.00000000 -.00003626  00000-0  00000-0 0  1856
2 29236   0.0333 224.2240 0002604 241.5094  77.2477  1.00271252    11
GALAXY 16 (G-16)        
1 29236C 06023A   22191.97408565 -.00000039  00000-0  00000-0 0  1919
2 29236   0.0550 270.2577 0003545 213.6056  56.6656  1.00272565    17
GALAXY 16 (G-16)    [PM]
1 29236C 06023A   22193.98910880 -.00000047  00000-0  00000-0 0  1931
2 29236   0.0554 247.0314 0003158 221.1034  79.7812  1.00270788    17
GALAXY 17 (G-17)        
1 31307C 07016B   22185.00000000 -.00000084  00000-0  00000-0 0  1856
2 31307   0.0245  86.3265 0002441  23.2203  81.4503  1.00271965    13
GALAXY 17 (G-17)        
1 31307C 07016B   22191.97408565 -.00000141  00000-0  00000-0 0  1918
2 31307   0.0064  30.0649 0003170  87.9872  70.4753  1.00271420    14
GALAXY 17 (G-17)    [PM]
1 31307C 07016B   22194.95973380 -.00000081  00000-0  00000-0 0  1947
2 31307   0.0116  68.5306 0003179  53.4000  64.3668  1.00271249    14
INTELSAT 11 (IS-11)     
1 32253C 07044B   22185.00000000 -.00003757  00000-0  00000-0 0  1858
2 32253   0.0219 294.3688 0001206 182.6422 121.9958  1.00271107    18
